[{"OBJECT_NAME":"CHUANGXIN 16B (CX-16B)","OBJECT_ID":"2022-102B","EPOCH":"2026-03-09T15:40:32.180736","MEAN_MOTION":15.37969866,"ECCENTRICITY":0.0001033,"INCLINATION":28.9915,"RA_OF_ASC_NODE":159.7576,"ARG_OF_PERICENTER":174.5964,"MEAN_ANOMALY":185.4655,"EPHEMERIS_TYPE":0,"CLASSIFICATION_TYPE":"U","NORAD_CAT_ID":53876,"ELEMENT_SET_NO":999,"REV_AT_EPOCH":19133,"BSTAR":0.00098651,"MEAN_MOTION_DOT":0.00038409,"MEAN_MOTION_DDOT":0},{"OBJECT_NAME":"CZ-2C DEB","OBJECT_ID":"2026-009C","EPOCH":"2026-03-09T19:20:16.840608","MEAN_MOTION":15.15876918,"ECCENTRICITY":0.01015815,"INCLINATION":97.2202,"RA_OF_ASC_NODE":140.8028,"ARG_OF_PERICENTER":36.3959,"MEAN_ANOMALY":324.4125,"EPHEMERIS_TYPE":0,"CLASSIFICATION_TYPE":"U","NORAD_CAT_ID":67586,"ELEMENT_SET_NO":999,"REV_AT_EPOCH":810,"BSTAR":0.0025681251,"MEAN_MOTION_DOT":0.0005635,"MEAN_MOTION_DDOT":0}]
